[{"OBJECT_NAME":"ONEWEB-0450","OBJECT_ID":"2021-132AM","EPOCH":"2026-03-09T17:09:03.567168","MEAN_MOTION":13.18686652,"ECCENTRICITY":0.00019502,"INCLINATION":87.9243,"RA_OF_ASC_NODE":355.2212,"ARG_OF_PERICENTER":86.486,"MEAN_ANOMALY":273.6495,"EPHEMERIS_TYPE":0,"CLASSIFICATION_TYPE":"U","NORAD_CAT_ID":50504,"ELEMENT_SET_NO":999,"REV_AT_EPOCH":20849,"BSTAR":0.00020393995,"MEAN_MOTION_DOT":9.3e-7,"MEAN_MOTION_DDOT":0},{"OBJECT_NAME":"DELTA 1 DEB","OBJECT_ID":"1975-052ED","EPOCH":"2026-03-09T20:24:54.227232","MEAN_MOTION":13.28558412,"ECCENTRICITY":0.00809472,"INCLINATION":99.6579,"RA_OF_ASC_NODE":91.35,"ARG_OF_PERICENTER":325.665,"MEAN_ANOMALY":212.6214,"EPHEMERIS_TYPE":0,"CLASSIFICATION_TYPE":"U","NORAD_CAT_ID":21445,"ELEMENT_SET_NO":999,"REV_AT_EPOCH":68954,"BSTAR":0.00011407944,"MEAN_MOTION_DOT":1.2e-7,"MEAN_MOTION_DDOT":0}]
